{
  "type": "Feature",
  "properties": {
    "operator_id": "Operator 5",
    "site_id": "CA",
    "metro_locality": "CA area",
    "operational_area_definition": {
      "type": "MultiCircle",
      "circles": [
        {
          "type": "Circle",
          "center_point": {
            "latitude": 37.4661386,
            "longitude": -121.7999268
          },
          "radius_meters": 5588.98
        },
        {
          "type": "Circle",
          "center_point": {
            "latitude": 37.3821616,
            "longitude": -121.6708374
          },
          "radius_meters": 8452.51
        }
      ]
    },
    "center_points": [
      {
        "latitude": 37.4661386,
        "longitude": -121.7999268
      },
      {
        "latitude": 37.3821616,
        "longitude": -121.6708374
      }
    ],
    "geographic_bounds": {
      "south": 37.3061463,
      "west": -121.8632531,
      "north": 37.5164015,
      "east": -121.575173
    }
  },
  "geometry": {
    "type": "MultiPolygon",
    "coordinates": [
      [
        [
          [
            -121.6614512,
            37.4578103
          ],
          [
            -121.6521557,
            37.4567147
          ],
          [
            -121.6430406,
            37.4549003
          ],
          [
            -121.634194,
            37.4523848
          ],
          [
            -121.6257012,
            37.4491924
          ],
          [
            -121.6176444,
            37.445354
          ],
          [
            -121.6101011,
            37.4409066
          ],
          [
            -121.603144,
            37.4358931
          ],
          [
            -121.5968404,
            37.4303621
          ],
          [
            -121.5912507,
            37.4243667
          ],
          [
            -121.5864288,
            37.4179649
          ],
          [
            -121.5824209,
            37.4112184
          ],
          [
            -121.5792655,
            37.4041923
          ],
          [
            -121.5769928,
            37.3969543
          ],
          [
            -121.5756244,
            37.3895742
          ],
          [
            -121.5751732,
            37.3821231
          ],
          [
            -121.5756433,
            37.3746727
          ],
          [
            -121.5770299,
            37.3672947
          ],
          [
            -121.5793194,
            37.3600603
          ],
          [
            -121.5824895,
            37.353039
          ],
          [
            -121.5865094,
            37.3462984
          ],
          [
            -121.5913403,
            37.3399032
          ],
          [
            -121.5969355,
            37.3339151
          ],
          [
            -121.603241,
            37.3283915
          ],
          [
            -121.6101962,
            37.3233856
          ],
          [
            -121.6177339,
            37.3189454
          ],
          [
            -121.6257819,
            37.3151137
          ],
          [
            -121.6342625,
            37.3119271
          ],
          [
            -121.6430944,
            37.3094164
          ],
          [
            -121.6521928,
            37.3076056
          ],
          [
            -121.6614701,
            37.3065121
          ],
          [
            -121.6708374,
            37.3061465
          ],
          [
            -121.6802047,
            37.3065121
          ],
          [
            -121.689482,
            37.3076056
          ],
          [
            -121.6985804,
            37.3094164
          ],
          [
            -121.7074123,
            37.3119271
          ],
          [
            -121.7158929,
            37.3151137
          ],
          [
            -121.7239409,
            37.3189454
          ],
          [
            -121.7314786,
            37.3233856
          ],
          [
            -121.7384338,
            37.3283915
          ],
          [
            -121.7447393,
            37.3339151
          ],
          [
            -121.7503345,
            37.3399032
          ],
          [
            -121.7551654,
            37.3462984
          ],
          [
            -121.7591853,
            37.353039
          ],
          [
            -121.7623554,
            37.3600603
          ],
          [
            -121.7646449,
            37.3672947
          ],
          [
            -121.7660315,
            37.3746727
          ],
          [
            -121.7665016,
            37.3821231
          ],
          [
            -121.7660504,
            37.3895742
          ],
          [
            -121.764682,
            37.3969543
          ],
          [
            -121.7624093,
            37.4041923
          ],
          [
            -121.7592539,
            37.4112184
          ],
          [
            -121.755246,
            37.4179649
          ],
          [
            -121.7504241,
            37.4243667
          ],
          [
            -121.7448344,
            37.4303621
          ],
          [
            -121.7385308,
            37.4358931
          ],
          [
            -121.7315737,
            37.4409066
          ],
          [
            -121.7240304,
            37.445354
          ],
          [
            -121.7159736,
            37.4491924
          ],
          [
            -121.7074808,
            37.4523848
          ],
          [
            -121.6986342,
            37.4549003
          ],
          [
            -121.6895191,
            37.4567147
          ],
          [
            -121.6802236,
            37.4578103
          ],
          [
            -121.6708374,
            37.4581767
          ],
          [
            -121.6614512,
            37.4578103
          ]
        ]
      ],
      [
        [
          [
            -121.7937156,
            37.5161592
          ],
          [
            -121.7875643,
            37.515435
          ],
          [
            -121.7815323,
            37.5142357
          ],
          [
            -121.7756778,
            37.5125729
          ],
          [
            -121.7700573,
            37.5104627
          ],
          [
            -121.764725,
            37.5079254
          ],
          [
            -121.7597322,
            37.5049855
          ],
          [
            -121.7551271,
            37.5016713
          ],
          [
            -121.7509541,
            37.4980149
          ],
          [
            -121.7472533,
            37.4940514
          ],
          [
            -121.7440604,
            37.4898192
          ],
          [
            -121.741406,
            37.4853589
          ],
          [
            -121.7393156,
            37.4807137
          ],
          [
            -121.7378092,
            37.4759281
          ],
          [
            -121.7369014,
            37.4710485
          ],
          [
            -121.7366006,
            37.4661217
          ],
          [
            -121.7369097,
            37.4611952
          ],
          [
            -121.7378255,
            37.4563166
          ],
          [
            -121.7393392,
            37.4515326
          ],
          [
            -121.7414361,
            37.4468894
          ],
          [
            -121.7440958,
            37.4424317
          ],
          [
            -121.7472926,
            37.4382024
          ],
          [
            -121.7509958,
            37.4342421
          ],
          [
            -121.7551697,
            37.430589
          ],
          [
            -121.7597739,
            37.4272781
          ],
          [
            -121.7647643,
            37.4243414
          ],
          [
            -121.7700927,
            37.421807
          ],
          [
            -121.7757079,
            37.4196993
          ],
          [
            -121.781556,
            37.4180386
          ],
          [
            -121.7875806,
            37.4168409
          ],
          [
            -121.7937239,
            37.4161176
          ],
          [
            -121.7999268,
            37.4158758
          ],
          [
            -121.8061297,
            37.4161176
          ],
          [
            -121.812273,
            37.4168409
          ],
          [
            -121.8182976,
            37.4180386
          ],
          [
            -121.8241457,
            37.4196993
          ],
          [
            -121.8297609,
            37.421807
          ],
          [
            -121.8350893,
            37.4243414
          ],
          [
            -121.8400797,
            37.4272781
          ],
          [
            -121.8446839,
            37.430589
          ],
          [
            -121.8488578,
            37.4342421
          ],
          [
            -121.852561,
            37.4382024
          ],
          [
            -121.8557578,
            37.4424317
          ],
          [
            -121.8584175,
            37.4468894
          ],
          [
            -121.8605144,
            37.4515326
          ],
          [
            -121.8620281,
            37.4563166
          ],
          [
            -121.8629439,
            37.4611952
          ],
          [
            -121.863253,
            37.4661217
          ],
          [
            -121.8629522,
            37.4710485
          ],
          [
            -121.8620444,
            37.4759281
          ],
          [
            -121.860538,
            37.4807137
          ],
          [
            -121.8584476,
            37.4853589
          ],
          [
            -121.8557932,
            37.4898192
          ],
          [
            -121.8526003,
            37.4940514
          ],
          [
            -121.8488995,
            37.4980149
          ],
          [
            -121.8447265,
            37.5016713
          ],
          [
            -121.8401214,
            37.5049855
          ],
          [
            -121.8351286,
            37.5079254
          ],
          [
            -121.8297963,
            37.5104627
          ],
          [
            -121.8241758,
            37.5125729
          ],
          [
            -121.8183213,
            37.5142357
          ],
          [
            -121.8122893,
            37.515435
          ],
          [
            -121.806138,
            37.5161592
          ],
          [
            -121.7999268,
            37.5164014
          ],
          [
            -121.7937156,
            37.5161592
          ]
        ]
      ]
    ]
  }
}
