{
  "type": "Feature",
  "properties": {
    "operator_id": "Operator 3",
    "site_id": "North Dakota",
    "metro_locality": "North Dakota Area",
    "center_point": {
      "latitude": 47.7245445,
      "longitude": -100.9863281
    },
    "operational_area_definition": {
      "type": "Circle",
      "center_point": {
        "latitude": 47.7245445,
        "longitude": -100.9863281
      },
      "radius_meters": 4650.01
    },
    "geographic_bounds": {
      "south": 47.682726,
      "west": -101.0484938,
      "north": 47.7663631,
      "east": -100.9241624
    }
  },
  "geometry": {
    "type": "Polygon",
    "coordinates": [
      [
        [
          -100.9863281,
          47.766363
        ],
        [
          -100.9802299,
          47.7661615
        ],
        [
          -100.9741906,
          47.7655588
        ],
        [
          -100.9682685,
          47.7645609
        ],
        [
          -100.9625207,
          47.7631773
        ],
        [
          -100.9570027,
          47.7614214
        ],
        [
          -100.9517677,
          47.7593101
        ],
        [
          -100.9468662,
          47.7568639
        ],
        [
          -100.9423455,
          47.7541062
        ],
        [
          -100.938249,
          47.7510638
        ],
        [
          -100.9346163,
          47.747766
        ],
        [
          -100.9314822,
          47.7442445
        ],
        [
          -100.928877,
          47.7405334
        ],
        [
          -100.9268255,
          47.7366684
        ],
        [
          -100.9253475,
          47.7326867
        ],
        [
          -100.924457,
          47.7286268
        ],
        [
          -100.9241626,
          47.7245277
        ],
        [
          -100.9244668,
          47.7204289
        ],
        [
          -100.9253666,
          47.71637
        ],
        [
          -100.9268533,
          47.7123899
        ],
        [
          -100.9289123,
          47.7085269
        ],
        [
          -100.9315237,
          47.7048184
        ],
        [
          -100.9346624,
          47.7012998
        ],
        [
          -100.938298,
          47.6980051
        ],
        [
          -100.9423954,
          47.694966
        ],
        [
          -100.9469152,
          47.6922116
        ],
        [
          -100.9518138,
          47.6897685
        ],
        [
          -100.9570442,
          47.6876602
        ],
        [
          -100.962556,
          47.6859068
        ],
        [
          -100.9682962,
          47.6845253
        ],
        [
          -100.9742097,
          47.6835289
        ],
        [
          -100.9802397,
          47.6829272
        ],
        [
          -100.9863281,
          47.682726
        ],
        [
          -100.9924165,
          47.6829272
        ],
        [
          -100.9984465,
          47.6835289
        ],
        [
          -101.00436,
          47.6845253
        ],
        [
          -101.0101002,
          47.6859068
        ],
        [
          -101.015612,
          47.6876602
        ],
        [
          -101.0208424,
          47.6897685
        ],
        [
          -101.025741,
          47.6922116
        ],
        [
          -101.0302608,
          47.694966
        ],
        [
          -101.0343582,
          47.6980051
        ],
        [
          -101.0379938,
          47.7012998
        ],
        [
          -101.0411325,
          47.7048184
        ],
        [
          -101.0437439,
          47.7085269
        ],
        [
          -101.0458029,
          47.7123899
        ],
        [
          -101.0472896,
          47.71637
        ],
        [
          -101.0481894,
          47.7204289
        ],
        [
          -101.0484936,
          47.7245277
        ],
        [
          -101.0481992,
          47.7286268
        ],
        [
          -101.0473087,
          47.7326867
        ],
        [
          -101.0458307,
          47.7366684
        ],
        [
          -101.0437792,
          47.7405334
        ],
        [
          -101.041174,
          47.7442445
        ],
        [
          -101.0380399,
          47.747766
        ],
        [
          -101.0344072,
          47.7510638
        ],
        [
          -101.0303107,
          47.7541062
        ],
        [
          -101.02579,
          47.7568639
        ],
        [
          -101.0208885,
          47.7593101
        ],
        [
          -101.0156535,
          47.7614214
        ],
        [
          -101.0101355,
          47.7631773
        ],
        [
          -101.0043877,
          47.7645609
        ],
        [
          -100.9984656,
          47.7655588
        ],
        [
          -100.9924263,
          47.7661615
        ],
        [
          -100.9863281,
          47.766363
        ]
      ]
    ]
  }
}
