{
  "type": "Feature",
  "properties": {
    "operator_id": "Operator 3",
    "site_id": "Washington",
    "metro_locality": "Washington Area",
    "operational_area_definition": {
      "type": "MultiCircle",
      "circles": [
        {
          "type": "Circle",
          "center_point": {
            "latitude": 47.7245445,
            "longitude": -100.9863281
          },
          "radius_meters": 4650.01
        },
        {
          "type": "Circle",
          "center_point": {
            "latitude": 38.5481654,
            "longitude": -80.5957031
          },
          "radius_meters": 22897.02
        }
      ]
    },
    "center_points": [
      {
        "latitude": 47.7245445,
        "longitude": -100.9863281
      },
      {
        "latitude": 38.5481654,
        "longitude": -80.5957031
      }
    ],
    "geographic_bounds": {
      "south": 38.3422476,
      "west": -101.0484938,
      "north": 47.7663631,
      "east": -80.3324092
    }
  },
  "geometry": {
    "type": "MultiPolygon",
    "coordinates": [
      [
        [
          [
            -80.569822,
            38.7530886
          ],
          [
            -80.5441923,
            38.750115
          ],
          [
            -80.5190628,
            38.7451913
          ],
          [
            -80.4946775,
            38.7383651
          ],
          [
            -80.4712729,
            38.7297027
          ],
          [
            -80.4490758,
            38.7192883
          ],
          [
            -80.4283008,
            38.7072228
          ],
          [
            -80.4091488,
            38.6936232
          ],
          [
            -80.3918042,
            38.6786214
          ],
          [
            -80.3764341,
            38.6623627
          ],
          [
            -80.3631856,
            38.6450045
          ],
          [
            -80.3521854,
            38.6267146
          ],
          [
            -80.3435381,
            38.6076698
          ],
          [
            -80.3373253,
            38.5880541
          ],
          [
            -80.3336048,
            38.5680567
          ],
          [
            -80.3324106,
            38.5478706
          ],
          [
            -80.3337519,
            38.5276901
          ],
          [
            -80.3376138,
            38.5077095
          ],
          [
            -80.343957,
            38.488121
          ],
          [
            -80.3527186,
            38.4691129
          ],
          [
            -80.3638125,
            38.4508677
          ],
          [
            -80.3771307,
            38.4335604
          ],
          [
            -80.3925437,
            38.417357
          ],
          [
            -80.4099028,
            38.4024127
          ],
          [
            -80.4290403,
            38.3888707
          ],
          [
            -80.4497724,
            38.3768605
          ],
          [
            -80.4718999,
            38.3664971
          ],
          [
            -80.4952107,
            38.3578794
          ],
          [
            -80.5194817,
            38.3510898
          ],
          [
            -80.5444808,
            38.3461933
          ],
          [
            -80.5699691,
            38.3432366
          ],
          [
            -80.5957031,
            38.3422478
          ],
          [
            -80.6214371,
            38.3432366
          ],
          [
            -80.6469254,
            38.3461933
          ],
          [
            -80.6719245,
            38.3510898
          ],
          [
            -80.6961955,
            38.3578794
          ],
          [
            -80.7195063,
            38.3664971
          ],
          [
            -80.7416338,
            38.3768605
          ],
          [
            -80.7623659,
            38.3888707
          ],
          [
            -80.7815034,
            38.4024127
          ],
          [
            -80.7988625,
            38.417357
          ],
          [
            -80.8142755,
            38.4335604
          ],
          [
            -80.8275937,
            38.4508677
          ],
          [
            -80.8386876,
            38.4691129
          ],
          [
            -80.8474492,
            38.488121
          ],
          [
            -80.8537924,
            38.5077095
          ],
          [
            -80.8576543,
            38.5276901
          ],
          [
            -80.8589956,
            38.5478706
          ],
          [
            -80.8578014,
            38.5680567
          ],
          [
            -80.8540809,
            38.5880541
          ],
          [
            -80.8478681,
            38.6076698
          ],
          [
            -80.8392208,
            38.6267146
          ],
          [
            -80.8282206,
            38.6450045
          ],
          [
            -80.8149721,
            38.6623627
          ],
          [
            -80.799602,
            38.6786214
          ],
          [
            -80.7822574,
            38.6936232
          ],
          [
            -80.7631054,
            38.7072228
          ],
          [
            -80.7423304,
            38.7192883
          ],
          [
            -80.7201333,
            38.7297027
          ],
          [
            -80.6967287,
            38.7383651
          ],
          [
            -80.6723434,
            38.7451913
          ],
          [
            -80.6472139,
            38.750115
          ],
          [
            -80.6215842,
            38.7530886
          ],
          [
            -80.5957031,
            38.754083
          ],
          [
            -80.569822,
            38.7530886
          ]
        ]
      ],
      [
        [
          [
            -100.9802299,
            47.7661615
          ],
          [
            -100.9741906,
            47.7655588
          ],
          [
            -100.9682685,
            47.7645609
          ],
          [
            -100.9625207,
            47.7631773
          ],
          [
            -100.9570027,
            47.7614214
          ],
          [
            -100.9517677,
            47.7593101
          ],
          [
            -100.9468662,
            47.7568639
          ],
          [
            -100.9423455,
            47.7541062
          ],
          [
            -100.938249,
            47.7510638
          ],
          [
            -100.9346163,
            47.747766
          ],
          [
            -100.9314822,
            47.7442445
          ],
          [
            -100.928877,
            47.7405334
          ],
          [
            -100.9268255,
            47.7366684
          ],
          [
            -100.9253475,
            47.7326867
          ],
          [
            -100.924457,
            47.7286268
          ],
          [
            -100.9241626,
            47.7245277
          ],
          [
            -100.9244668,
            47.7204289
          ],
          [
            -100.9253666,
            47.71637
          ],
          [
            -100.9268533,
            47.7123899
          ],
          [
            -100.9289123,
            47.7085269
          ],
          [
            -100.9315237,
            47.7048184
          ],
          [
            -100.9346624,
            47.7012998
          ],
          [
            -100.938298,
            47.6980051
          ],
          [
            -100.9423954,
            47.694966
          ],
          [
            -100.9469152,
            47.6922116
          ],
          [
            -100.9518138,
            47.6897685
          ],
          [
            -100.9570442,
            47.6876602
          ],
          [
            -100.962556,
            47.6859068
          ],
          [
            -100.9682962,
            47.6845253
          ],
          [
            -100.9742097,
            47.6835289
          ],
          [
            -100.9802397,
            47.6829272
          ],
          [
            -100.9863281,
            47.682726
          ],
          [
            -100.9924165,
            47.6829272
          ],
          [
            -100.9984465,
            47.6835289
          ],
          [
            -101.00436,
            47.6845253
          ],
          [
            -101.0101002,
            47.6859068
          ],
          [
            -101.015612,
            47.6876602
          ],
          [
            -101.0208424,
            47.6897685
          ],
          [
            -101.025741,
            47.6922116
          ],
          [
            -101.0302608,
            47.694966
          ],
          [
            -101.0343582,
            47.6980051
          ],
          [
            -101.0379938,
            47.7012998
          ],
          [
            -101.0411325,
            47.7048184
          ],
          [
            -101.0437439,
            47.7085269
          ],
          [
            -101.0458029,
            47.7123899
          ],
          [
            -101.0472896,
            47.71637
          ],
          [
            -101.0481894,
            47.7204289
          ],
          [
            -101.0484936,
            47.7245277
          ],
          [
            -101.0481992,
            47.7286268
          ],
          [
            -101.0473087,
            47.7326867
          ],
          [
            -101.0458307,
            47.7366684
          ],
          [
            -101.0437792,
            47.7405334
          ],
          [
            -101.041174,
            47.7442445
          ],
          [
            -101.0380399,
            47.747766
          ],
          [
            -101.0344072,
            47.7510638
          ],
          [
            -101.0303107,
            47.7541062
          ],
          [
            -101.02579,
            47.7568639
          ],
          [
            -101.0208885,
            47.7593101
          ],
          [
            -101.0156535,
            47.7614214
          ],
          [
            -101.0101355,
            47.7631773
          ],
          [
            -101.0043877,
            47.7645609
          ],
          [
            -100.9984656,
            47.7655588
          ],
          [
            -100.9924263,
            47.7661615
          ],
          [
            -100.9863281,
            47.766363
          ],
          [
            -100.9802299,
            47.7661615
          ]
        ]
      ]
    ]
  }
}
