{
  "type": "Feature",
  "properties": {
    "operator_id": "Opoerator -2",
    "site_id": "Milpitas",
    "metro_locality": "South Bay",
    "operational_area_definition": {
      "type": "MultiCircle",
      "circles": [
        {
          "type": "Circle",
          "center_point": {
            "latitude": 37.4405192,
            "longitude": -121.9145966
          },
          "radius_meters": 1335.14
        },
        {
          "type": "Circle",
          "center_point": {
            "latitude": 37.4148911,
            "longitude": -121.8981171
          },
          "radius_meters": 1446.45
        }
      ]
    },
    "center_points": [
      {
        "latitude": 37.4405192,
        "longitude": -121.9145966
      },
      {
        "latitude": 37.4148911,
        "longitude": -121.8981171
      }
    ],
    "geographic_bounds": {
      "south": 37.4018829,
      "west": -121.9297193,
      "north": 37.4525265,
      "east": -121.8817392
    },
    "coordination_contact": "Rick Johnson | 555-312-6578"
  },
  "geometry": {
    "type": "MultiPolygon",
    "coordinates": [
      [
        [
          [
            -121.8965115,
            37.4278367
          ],
          [
            -121.8949214,
            37.4276493
          ],
          [
            -121.8933621,
            37.4273391
          ],
          [
            -121.8918486,
            37.426909
          ],
          [
            -121.8903955,
            37.4263631
          ],
          [
            -121.8890167,
            37.4257067
          ],
          [
            -121.8877257,
            37.4249461
          ],
          [
            -121.8865348,
            37.4240887
          ],
          [
            -121.8854555,
            37.4231428
          ],
          [
            -121.8844981,
            37.4221173
          ],
          [
            -121.8836719,
            37.4210223
          ],
          [
            -121.8829849,
            37.4198682
          ],
          [
            -121.8824437,
            37.4186662
          ],
          [
            -121.8820534,
            37.4174278
          ],
          [
            -121.8818178,
            37.416165
          ],
          [
            -121.8817392,
            37.41489
          ],
          [
            -121.8818184,
            37.413615
          ],
          [
            -121.8820545,
            37.4123522
          ],
          [
            -121.8824453,
            37.411114
          ],
          [
            -121.8829869,
            37.4099121
          ],
          [
            -121.8836743,
            37.4087582
          ],
          [
            -121.8845007,
            37.4076633
          ],
          [
            -121.8854582,
            37.4066381
          ],
          [
            -121.8865376,
            37.4056923
          ],
          [
            -121.8877285,
            37.4048352
          ],
          [
            -121.8890194,
            37.4040748
          ],
          [
            -121.8903978,
            37.4034186
          ],
          [
            -121.8918506,
            37.4028729
          ],
          [
            -121.8933637,
            37.4024429
          ],
          [
            -121.8949225,
            37.4021328
          ],
          [
            -121.8965121,
            37.4019455
          ],
          [
            -121.8981171,
            37.4018829
          ],
          [
            -121.8997221,
            37.4019455
          ],
          [
            -121.9013117,
            37.4021328
          ],
          [
            -121.9028705,
            37.4024429
          ],
          [
            -121.9043836,
            37.4028729
          ],
          [
            -121.9058364,
            37.4034186
          ],
          [
            -121.9072148,
            37.4040748
          ],
          [
            -121.9085057,
            37.4048352
          ],
          [
            -121.9096966,
            37.4056923
          ],
          [
            -121.910776,
            37.4066381
          ],
          [
            -121.9117335,
            37.4076633
          ],
          [
            -121.9125599,
            37.4087582
          ],
          [
            -121.9132473,
            37.4099121
          ],
          [
            -121.9137889,
            37.411114
          ],
          [
            -121.9141797,
            37.4123522
          ],
          [
            -121.9144158,
            37.413615
          ],
          [
            -121.914495,
            37.41489
          ],
          [
            -121.9144164,
            37.416165
          ],
          [
            -121.9141808,
            37.4174278
          ],
          [
            -121.9137905,
            37.4186662
          ],
          [
            -121.9132493,
            37.4198682
          ],
          [
            -121.9125623,
            37.4210223
          ],
          [
            -121.9117361,
            37.4221173
          ],
          [
            -121.9107787,
            37.4231428
          ],
          [
            -121.9096994,
            37.4240887
          ],
          [
            -121.9085085,
            37.4249461
          ],
          [
            -121.9072175,
            37.4257067
          ],
          [
            -121.9058387,
            37.4263631
          ],
          [
            -121.9043856,
            37.426909
          ],
          [
            -121.9028721,
            37.4273391
          ],
          [
            -121.9013128,
            37.4276493
          ],
          [
            -121.8997227,
            37.4278367
          ],
          [
            -121.8981171,
            37.4278993
          ],
          [
            -121.8965115,
            37.4278367
          ]
        ]
      ],
      [
        [
          [
            -121.9131141,
            37.4524686
          ],
          [
            -121.9116458,
            37.4522956
          ],
          [
            -121.910206,
            37.4520093
          ],
          [
            -121.9088085,
            37.4516123
          ],
          [
            -121.9074668,
            37.4511084
          ],
          [
            -121.9061938,
            37.4505025
          ],
          [
            -121.9050017,
            37.4498005
          ],
          [
            -121.903902,
            37.4490091
          ],
          [
            -121.9029054,
            37.4481359
          ],
          [
            -121.9020214,
            37.4471894
          ],
          [
            -121.9012586,
            37.4461786
          ],
          [
            -121.9006242,
            37.4451133
          ],
          [
            -121.9001244,
            37.4440038
          ],
          [
            -121.899764,
            37.4428608
          ],
          [
            -121.8995465,
            37.4416952
          ],
          [
            -121.8994739,
            37.4405182
          ],
          [
            -121.899547,
            37.4393413
          ],
          [
            -121.899765,
            37.4381758
          ],
          [
            -121.9001258,
            37.4370328
          ],
          [
            -121.9006259,
            37.4359234
          ],
          [
            -121.9012606,
            37.4348583
          ],
          [
            -121.9020237,
            37.4338477
          ],
          [
            -121.9029078,
            37.4329013
          ],
          [
            -121.9039045,
            37.4320284
          ],
          [
            -121.9050041,
            37.4312371
          ],
          [
            -121.906196,
            37.4305353
          ],
          [
            -121.9074688,
            37.4299296
          ],
          [
            -121.9088103,
            37.4294259
          ],
          [
            -121.9102074,
            37.429029
          ],
          [
            -121.9116468,
            37.4287427
          ],
          [
            -121.9131146,
            37.4285698
          ],
          [
            -121.9145966,
            37.428512
          ],
          [
            -121.9160786,
            37.4285698
          ],
          [
            -121.9175464,
            37.4287427
          ],
          [
            -121.9189858,
            37.429029
          ],
          [
            -121.9203829,
            37.4294259
          ],
          [
            -121.9217244,
            37.4299296
          ],
          [
            -121.9229972,
            37.4305353
          ],
          [
            -121.9241891,
            37.4312371
          ],
          [
            -121.9252887,
            37.4320284
          ],
          [
            -121.9262854,
            37.4329013
          ],
          [
            -121.9271695,
            37.4338477
          ],
          [
            -121.9279326,
            37.4348583
          ],
          [
            -121.9285673,
            37.4359234
          ],
          [
            -121.9290674,
            37.4370328
          ],
          [
            -121.9294282,
            37.4381758
          ],
          [
            -121.9296462,
            37.4393413
          ],
          [
            -121.9297193,
            37.4405182
          ],
          [
            -121.9296467,
            37.4416952
          ],
          [
            -121.9294292,
            37.4428608
          ],
          [
            -121.9290688,
            37.4440038
          ],
          [
            -121.928569,
            37.4451133
          ],
          [
            -121.9279346,
            37.4461786
          ],
          [
            -121.9271718,
            37.4471894
          ],
          [
            -121.9262878,
            37.4481359
          ],
          [
            -121.9252912,
            37.4490091
          ],
          [
            -121.9241915,
            37.4498005
          ],
          [
            -121.9229994,
            37.4505025
          ],
          [
            -121.9217264,
            37.4511084
          ],
          [
            -121.9203847,
            37.4516123
          ],
          [
            -121.9189872,
            37.4520093
          ],
          [
            -121.9175474,
            37.4522956
          ],
          [
            -121.9160791,
            37.4524686
          ],
          [
            -121.9145966,
            37.4525264
          ],
          [
            -121.9131141,
            37.4524686
          ]
        ]
      ]
    ]
  }
}
