{
  "type": "Feature",
  "properties": {
    "operator_id": "Operator 002",
    "site_id": "DFW 002",
    "metro_locality": "Dallas-Fort Wort Metro Area",
    "center_point": {
      "latitude": 32.7612943,
      "longitude": -96.6783142
    },
    "operational_area_definition": {
      "type": "Circle",
      "center_point": {
        "latitude": 32.7612943,
        "longitude": -96.6783142
      },
      "radius_meters": 8046.72
    },
    "geographic_bounds": {
      "south": 32.6889284,
      "west": -96.7643686,
      "north": 32.8336602,
      "east": -96.5922598
    }
  },
  "geometry": {
    "type": "Polygon",
    "coordinates": [
      [
        [
          -96.6783142,
          32.8336601
        ],
        [
          -96.6698726,
          32.8333113
        ],
        [
          -96.6615124,
          32.8322685
        ],
        [
          -96.6533145,
          32.8305416
        ],
        [
          -96.6453579,
          32.8281473
        ],
        [
          -96.6377194,
          32.8251087
        ],
        [
          -96.6304727,
          32.8214552
        ],
        [
          -96.6236876,
          32.817222
        ],
        [
          -96.6174297,
          32.8124499
        ],
        [
          -96.6117591,
          32.8071851
        ],
        [
          -96.6067304,
          32.8014782
        ],
        [
          -96.6023921,
          32.7953844
        ],
        [
          -96.5987857,
          32.7889624
        ],
        [
          -96.595946,
          32.782274
        ],
        [
          -96.5939001,
          32.7753839
        ],
        [
          -96.5926675,
          32.7683583
        ],
        [
          -96.59226,
          32.7612649
        ],
        [
          -96.5926812,
          32.7541721
        ],
        [
          -96.5939269,
          32.7471482
        ],
        [
          -96.5959849,
          32.7402607
        ],
        [
          -96.5988352,
          32.733576
        ],
        [
          -96.6024502,
          32.7271584
        ],
        [
          -96.606795,
          32.7210697
        ],
        [
          -96.6118277,
          32.7153684
        ],
        [
          -96.6174996,
          32.7101093
        ],
        [
          -96.6237562,
          32.705343
        ],
        [
          -96.6305373,
          32.7011153
        ],
        [
          -96.6377776,
          32.6974668
        ],
        [
          -96.6454074,
          32.6944327
        ],
        [
          -96.6533534,
          32.6920421
        ],
        [
          -96.6615392,
          32.6903179
        ],
        [
          -96.6698862,
          32.6892767
        ],
        [
          -96.6783142,
          32.6889285
        ],
        [
          -96.6867422,
          32.6892767
        ],
        [
          -96.6950892,
          32.6903179
        ],
        [
          -96.703275,
          32.6920421
        ],
        [
          -96.711221,
          32.6944327
        ],
        [
          -96.7188508,
          32.6974668
        ],
        [
          -96.7260911,
          32.7011153
        ],
        [
          -96.7328722,
          32.705343
        ],
        [
          -96.7391288,
          32.7101093
        ],
        [
          -96.7448007,
          32.7153684
        ],
        [
          -96.7498334,
          32.7210697
        ],
        [
          -96.7541782,
          32.7271584
        ],
        [
          -96.7577932,
          32.733576
        ],
        [
          -96.7606435,
          32.7402607
        ],
        [
          -96.7627015,
          32.7471482
        ],
        [
          -96.7639472,
          32.7541721
        ],
        [
          -96.7643684,
          32.7612649
        ],
        [
          -96.7639609,
          32.7683583
        ],
        [
          -96.7627283,
          32.7753839
        ],
        [
          -96.7606824,
          32.782274
        ],
        [
          -96.7578427,
          32.7889624
        ],
        [
          -96.7542363,
          32.7953844
        ],
        [
          -96.749898,
          32.8014782
        ],
        [
          -96.7448693,
          32.8071851
        ],
        [
          -96.7391987,
          32.8124499
        ],
        [
          -96.7329408,
          32.817222
        ],
        [
          -96.7261557,
          32.8214552
        ],
        [
          -96.718909,
          32.8251087
        ],
        [
          -96.7112705,
          32.8281473
        ],
        [
          -96.7033139,
          32.8305416
        ],
        [
          -96.695116,
          32.8322685
        ],
        [
          -96.6867558,
          32.8333113
        ],
        [
          -96.6783142,
          32.8336601
        ]
      ]
    ]
  }
}
