{
  "type": "Feature",
  "properties": {
    "operator_id": "Operator -002",
    "site_id": "Seattle",
    "metro_locality": "Seattle Area",
    "center_point": {
      "latitude": 47.6450366,
      "longitude": -122.7529907
    },
    "operational_area_definition": {
      "type": "Circle",
      "center_point": {
        "latitude": 47.6450366,
        "longitude": -122.7529907
      },
      "radius_meters": 39151.15
    },
    "geographic_bounds": {
      "south": 47.292942,
      "west": -123.275606,
      "north": 47.997131,
      "east": -122.230375
    },
    "coordination_contact": "555-312-6574",
    "effective_from": "2026-09-30",
    "effective_to": "2026-10-01"
  },
  "geometry": {
    "type": "Polygon",
    "coordinates": [
      [
        [
          -122.7529907,
          47.9971309
        ],
        [
          -122.7014193,
          47.9954239
        ],
        [
          -122.6503547,
          47.9903199
        ],
        [
          -122.6002983,
          47.981869
        ],
        [
          -122.5517412,
          47.9701541
        ],
        [
          -122.5051588,
          47.9552903
        ],
        [
          -122.4610061,
          47.9374234
        ],
        [
          -122.4197129,
          47.9167284
        ],
        [
          -122.3816798,
          47.8934079
        ],
        [
          -122.3472738,
          47.8676899
        ],
        [
          -122.3168252,
          47.8398254
        ],
        [
          -122.2906241,
          47.810086
        ],
        [
          -122.268918,
          47.778761
        ],
        [
          -122.2519093,
          47.7461548
        ],
        [
          -122.239754,
          47.7125834
        ],
        [
          -122.2325603,
          47.6783717
        ],
        [
          -122.2303878,
          47.64385
        ],
        [
          -122.2332475,
          47.6093511
        ],
        [
          -122.241102,
          47.5752069
        ],
        [
          -122.2538663,
          47.5417451
        ],
        [
          -122.2714088,
          47.5092864
        ],
        [
          -122.293553,
          47.4781413
        ],
        [
          -122.3200797,
          47.448607
        ],
        [
          -122.3507288,
          47.4209651
        ],
        [
          -122.3852025,
          47.3954786
        ],
        [
          -122.4231679,
          47.3723896
        ],
        [
          -122.4642607,
          47.3519173
        ],
        [
          -122.5080879,
          47.3342555
        ],
        [
          -122.5542322,
          47.3195715
        ],
        [
          -122.6022555,
          47.3080042
        ],
        [
          -122.6517028,
          47.2996629
        ],
        [
          -122.7021066,
          47.2946265
        ],
        [
          -122.7529907,
          47.2929423
        ],
        [
          -122.8038748,
          47.2946265
        ],
        [
          -122.8542786,
          47.2996629
        ],
        [
          -122.9037259,
          47.3080042
        ],
        [
          -122.9517492,
          47.3195715
        ],
        [
          -122.9978935,
          47.3342555
        ],
        [
          -123.0417207,
          47.3519173
        ],
        [
          -123.0828135,
          47.3723896
        ],
        [
          -123.1207789,
          47.3954786
        ],
        [
          -123.1552526,
          47.4209651
        ],
        [
          -123.1859017,
          47.448607
        ],
        [
          -123.2124284,
          47.4781413
        ],
        [
          -123.2345726,
          47.5092864
        ],
        [
          -123.2521151,
          47.5417451
        ],
        [
          -123.2648794,
          47.5752069
        ],
        [
          -123.2727339,
          47.6093511
        ],
        [
          -123.2755936,
          47.64385
        ],
        [
          -123.2734211,
          47.6783717
        ],
        [
          -123.2662274,
          47.7125834
        ],
        [
          -123.2540721,
          47.7461548
        ],
        [
          -123.2370634,
          47.778761
        ],
        [
          -123.2153573,
          47.810086
        ],
        [
          -123.1891562,
          47.8398254
        ],
        [
          -123.1587076,
          47.8676899
        ],
        [
          -123.1243016,
          47.8934079
        ],
        [
          -123.0862685,
          47.9167284
        ],
        [
          -123.0449753,
          47.9374234
        ],
        [
          -123.0008226,
          47.9552903
        ],
        [
          -122.9542402,
          47.9701541
        ],
        [
          -122.9056831,
          47.981869
        ],
        [
          -122.8556267,
          47.9903199
        ],
        [
          -122.8045621,
          47.9954239
        ],
        [
          -122.7529907,
          47.9971309
        ]
      ]
    ]
  }
}
