{
  "type": "Feature",
  "properties": {
    "operator_id": "Operator 001",
    "site_id": "DFW 001",
    "metro_locality": "Dallas-Fort Worth Metro Area",
    "center_point": {
      "latitude": 32.7767,
      "longitude": -96.797
    },
    "operational_area_definition": {
      "type": "Circle",
      "center_point": {
        "latitude": 32.7767,
        "longitude": -96.797
      },
      "radius_meters": 8046.72
    },
    "geographic_bounds": {
      "south": 32.7043341,
      "west": -96.8830693,
      "north": 32.8490659,
      "east": -96.7109307
    }
  },
  "geometry": {
    "type": "Polygon",
    "coordinates": [
      [
        [
          -96.797,
          32.8490658
        ],
        [
          -96.7885569,
          32.848717
        ],
        [
          -96.7801953,
          32.8476742
        ],
        [
          -96.771996,
          32.8459473
        ],
        [
          -96.764038,
          32.843553
        ],
        [
          -96.7563982,
          32.8405144
        ],
        [
          -96.7491502,
          32.8368609
        ],
        [
          -96.742364,
          32.8326277
        ],
        [
          -96.7361049,
          32.8278556
        ],
        [
          -96.7304333,
          32.8225908
        ],
        [
          -96.7254038,
          32.8168839
        ],
        [
          -96.7210647,
          32.8107901
        ],
        [
          -96.7174577,
          32.8043681
        ],
        [
          -96.7146175,
          32.7976797
        ],
        [
          -96.7125713,
          32.7907896
        ],
        [
          -96.7113385,
          32.7837639
        ],
        [
          -96.7109309,
          32.7766706
        ],
        [
          -96.7113522,
          32.7695778
        ],
        [
          -96.7125981,
          32.7625538
        ],
        [
          -96.7146564,
          32.7556664
        ],
        [
          -96.7175072,
          32.7489817
        ],
        [
          -96.7211229,
          32.7425641
        ],
        [
          -96.7254685,
          32.7364754
        ],
        [
          -96.730502,
          32.7307741
        ],
        [
          -96.7361749,
          32.725515
        ],
        [
          -96.7424326,
          32.7207487
        ],
        [
          -96.7492148,
          32.716521
        ],
        [
          -96.7564564,
          32.7128725
        ],
        [
          -96.7640875,
          32.7098384
        ],
        [
          -96.7720349,
          32.7074478
        ],
        [
          -96.7802221,
          32.7057236
        ],
        [
          -96.7885706,
          32.7046824
        ],
        [
          -96.797,
          32.7043342
        ],
        [
          -96.8054294,
          32.7046824
        ],
        [
          -96.8137779,
          32.7057236
        ],
        [
          -96.8219651,
          32.7074478
        ],
        [
          -96.8299125,
          32.7098384
        ],
        [
          -96.8375436,
          32.7128725
        ],
        [
          -96.8447852,
          32.716521
        ],
        [
          -96.8515674,
          32.7207487
        ],
        [
          -96.8578251,
          32.725515
        ],
        [
          -96.863498,
          32.7307741
        ],
        [
          -96.8685315,
          32.7364754
        ],
        [
          -96.8728771,
          32.7425641
        ],
        [
          -96.8764928,
          32.7489817
        ],
        [
          -96.8793436,
          32.7556664
        ],
        [
          -96.8814019,
          32.7625538
        ],
        [
          -96.8826478,
          32.7695778
        ],
        [
          -96.8830691,
          32.7766706
        ],
        [
          -96.8826615,
          32.7837639
        ],
        [
          -96.8814287,
          32.7907896
        ],
        [
          -96.8793825,
          32.7976797
        ],
        [
          -96.8765423,
          32.8043681
        ],
        [
          -96.8729353,
          32.8107901
        ],
        [
          -96.8685962,
          32.8168839
        ],
        [
          -96.8635667,
          32.8225908
        ],
        [
          -96.8578951,
          32.8278556
        ],
        [
          -96.851636,
          32.8326277
        ],
        [
          -96.8448498,
          32.8368609
        ],
        [
          -96.8376018,
          32.8405144
        ],
        [
          -96.829962,
          32.843553
        ],
        [
          -96.822004,
          32.8459473
        ],
        [
          -96.8138047,
          32.8476742
        ],
        [
          -96.8054431,
          32.848717
        ],
        [
          -96.797,
          32.8490658
        ]
      ]
    ]
  }
}
