{
  "type": "Feature",
  "properties": {
    "operator_id": "Operator-001",
    "site_id": "Seattle",
    "metro_locality": "Seattle Area",
    "center_point": {
      "latitude": 47.9310663,
      "longitude": -123.2226563
    },
    "operational_area_definition": {
      "type": "Circle",
      "center_point": {
        "latitude": 47.9310663,
        "longitude": -123.2226563
      },
      "radius_meters": 52472.22
    },
    "geographic_bounds": {
      "south": 47.459172,
      "west": -123.92696,
      "north": 48.40296,
      "east": -122.518353
    },
    "coordination_contact": "555-312-6545",
    "effective_from": "2026-09-19",
    "effective_to": "2026-10-02"
  },
  "geometry": {
    "type": "Polygon",
    "coordinates": [
      [
        [
          -123.2226563,
          48.4029597
        ],
        [
          -123.1529893,
          48.4006664
        ],
        [
          -123.0840119,
          48.3938095
        ],
        [
          -123.0164061,
          48.3824566
        ],
        [
          -122.9508394,
          48.3667202
        ],
        [
          -122.8879576,
          48.3467557
        ],
        [
          -122.8283779,
          48.3227603
        ],
        [
          -122.7726826,
          48.2949705
        ],
        [
          -122.7214131,
          48.2636599
        ],
        [
          -122.6750647,
          48.2291362
        ],
        [
          -122.6340815,
          48.1917381
        ],
        [
          -122.5988525,
          48.1518315
        ],
        [
          -122.5697077,
          48.1098062
        ],
        [
          -122.546916,
          48.0660715
        ],
        [
          -122.5306822,
          48.0210524
        ],
        [
          -122.5211464,
          47.9751852
        ],
        [
          -122.5183829,
          47.9289133
        ],
        [
          -122.5224,
          47.8826828
        ],
        [
          -122.5331413,
          47.8369381
        ],
        [
          -122.5504861,
          47.792118
        ],
        [
          -122.5742518,
          47.748651
        ],
        [
          -122.6041958,
          47.7069519
        ],
        [
          -122.6400188,
          47.6674175
        ],
        [
          -122.6813678,
          47.6304232
        ],
        [
          -122.7278399,
          47.5963196
        ],
        [
          -122.778986,
          47.565429
        ],
        [
          -122.8343157,
          47.5380431
        ],
        [
          -122.8933016,
          47.5144199
        ],
        [
          -122.9553842,
          47.4947817
        ],
        [
          -123.0199769,
          47.4793131
        ],
        [
          -123.0864715,
          47.4681592
        ],
        [
          -123.1542433,
          47.4614248
        ],
        [
          -123.2226563,
          47.4591729
        ],
        [
          -123.2910693,
          47.4614248
        ],
        [
          -123.3588411,
          47.4681592
        ],
        [
          -123.4253357,
          47.4793131
        ],
        [
          -123.4899284,
          47.4947817
        ],
        [
          -123.552011,
          47.5144199
        ],
        [
          -123.6109969,
          47.5380431
        ],
        [
          -123.6663266,
          47.565429
        ],
        [
          -123.7174727,
          47.5963196
        ],
        [
          -123.7639448,
          47.6304232
        ],
        [
          -123.8052938,
          47.6674175
        ],
        [
          -123.8411168,
          47.7069519
        ],
        [
          -123.8710608,
          47.748651
        ],
        [
          -123.8948265,
          47.792118
        ],
        [
          -123.9121713,
          47.8369381
        ],
        [
          -123.9229126,
          47.8826828
        ],
        [
          -123.9269297,
          47.9289133
        ],
        [
          -123.9241662,
          47.9751852
        ],
        [
          -123.9146304,
          48.0210524
        ],
        [
          -123.8983966,
          48.0660715
        ],
        [
          -123.8756049,
          48.1098062
        ],
        [
          -123.8464601,
          48.1518315
        ],
        [
          -123.8112311,
          48.1917381
        ],
        [
          -123.7702479,
          48.2291362
        ],
        [
          -123.7238995,
          48.2636599
        ],
        [
          -123.67263,
          48.2949705
        ],
        [
          -123.6169347,
          48.3227603
        ],
        [
          -123.557355,
          48.3467557
        ],
        [
          -123.4944732,
          48.3667202
        ],
        [
          -123.4289065,
          48.3824566
        ],
        [
          -123.3613007,
          48.3938095
        ],
        [
          -123.2923233,
          48.4006664
        ],
        [
          -123.2226563,
          48.4029597
        ]
      ]
    ]
  }
}
